satname,norad_id,inclination_deg,eccentricity,mean_motion_rev_per_day,perigee_km,apogee_km,l1,l2
STARLINK-1225,45187,53.1585,0.0002693,15.30333356,472.971420865043,476.66242184708517,1 45187U 20012K   26100.15750495  .00017479  00000+0  59839-3 0  9999,2 45187  53.1585 253.5027 0002693  91.1836 268.9473 15.30333356339754
STARLINK-1230,45189,53.1579,0.0001492,15.30299339,473.89600123944274,475.9409529938148,1 45189U 20012M   26099.84047499  .00016363  00000+0  56167-3 0  9999,2 45189  53.1579 255.0361 0001492  41.4909 318.6205 15.30299339336937
STARLINK-1234,45190,53.0416,0.0008576,15.6746857,360.36460795714174,371.93240645910464,1 45190U 20012N   26100.44913956  .00055504  00000+0  50319-3 0  9993,2 45190  53.0416 169.3570 0008576  29.0950 331.0542 15.67468570340859
STARLINK-1269,45197,53.1581,9.64e-05,15.30402007,473.9513742739209,475.27258427712604,1 45197U 20012V   26100.42496951  .00016361  00000+0  55982-3 0  9998,2 45197  53.1581 252.1760 0000964  92.8939 267.2172 15.30402007339771
STARLINK-1154,45198,53.0443,0.0002991,15.51672049,409.812974978282,413.87474152768937,1 45198U 20012W   26100.30660340  .00087603  00000+0  14396-2 0  9991,2 45198  53.0443 218.5749 0002991 253.6543 106.4137 15.51672049340192
STARLINK-1199,45201,53.156,7.93e-05,15.30430315,473.9840602932172,475.0708928792028,1 45201U 20012Z   26100.52491885  .00028633  00000+0  96823-3 0  9990,2 45201  53.1560 235.9572 0000793  62.5965 297.5116 15.30430315340035
STARLINK-1209,45206,53.0422,0.0011621,15.57346134,387.46981153563956,403.2127297322477,1 45206U 20012AE  26100.50875101  .00049458  00000+0  66495-3 0  9990,2 45206  53.0422 179.8099 0011621  11.7348 348.3932 15.57346134339863
STARLINK-1231,45212,53.0358,0.0002865,15.24092694,491.54252339961477,495.4799778472225,1 45212U 20012AL  26100.51740145  .00041666  00000+0  16974-2 0  9996,2 45212  53.0358 229.2896 0002865 246.5810 113.4885 15.24092694340071
STARLINK-1271,45217,53.1575,7.72e-05,15.30295202,474.4017713080357,475.45988498070074,1 45217U 20012AR  26100.52307128  .00021699  00000+0  74045-3 0  9990,2 45217  53.1575 236.0974 0000772  72.6190 287.4895 15.30295202340031
STARLINK-1191,45222,53.157,0.0003705,15.33656642,462.37819897591544,467.4488994328767,1 45222U 20012AW  26100.51258150  .00048836  00000+0  14813-2 0  9993,2 45222  53.1570 210.6798 0003705 351.0071   9.0865 15.33656642340391
STARLINK-1212,45223,53.0445,0.0005073,15.58882665,387.45570633575153,394.32356075814823,1 45223U 20012AX  26100.53171683  .00100423  00000+0  12629-2 0  9995,2 45223  53.0445 196.0807 0005073 308.4710  51.5846 15.58882665340592
STARLINK-1215,45225,53.157,7.81e-05,15.30450288,473.93266797441174,475.0030448529842,1 45225U 20012AZ  26100.52904556  .00044930  00000+0  15083-2 0  9996,2 45225  53.1570 210.4101 0000781  75.6975 284.4112 15.30450288340358
STARLINK-1221,45227,53.0644,0.0003811,15.43128786,434.2846156826581,439.47902302676994,1 45227U 20012BB  26100.33552988  .00015452  00000+0  35222-3 0  9990,2 45227  53.0644 119.5180 0003811  92.8591 267.2850 15.43128786341593
STARLINK-1222,45228,53.0541,9.07e-05,15.51536373,411.62380411771846,412.85557844951745,1 45228U 20012BC  26100.52686310  .00024609  00000+0  41517-3 0  9997,2 45228  53.0541 189.9351 0000907 174.1683 185.9336 15.51536373340565
STARLINK-1226,45229,53.1564,0.0002349,15.38412979,449.19763814298494,452.4058735704866,1 45229U 20012BD  26100.28641662  .00072238  00000+0  18711-2 0  9992,2 45229  53.1564 211.0227 0002349  32.3725 327.7423 15.38412979340265
STARLINK-1227,45230,53.1566,0.0002209,15.38420331,449.27149140319125,452.28850693342247,1 45230U 20012BE  26100.56006131  .00061668  00000+0  16007-2 0  9992,2 45230  53.1566 209.8961 0002209  13.6478 346.4586 15.38420331340428
STARLINK-1246,45235,53.1576,0.0001026,15.3024334,474.382526399997,475.788807691275,1 45235U 20012BK  26098.73644121  .00013561  00000+0  46852-3 0  9990,2 45235  53.1576 259.6828 0001026  94.7438 265.3680 15.30243340339574
STARLINK-1270,45237,53.0466,0.0003484,15.52906951,405.87932218093374,410.60807225075405,1 45237U 20012BM  26100.44122135  .00089541  00000+0  14070-2 0  9997,2 45237  53.0466 195.2568 0003484 334.4278  25.6558 15.52906951340598
STARLINK-1279,45360,53.0399,0.0004154,15.64452002,372.0100773481481,377.6204300805339,1 45360U 20019A   26100.27287608  .00129675  00000+0  13089-2 0  9991,2 45360  53.0399 304.7203 0004154 248.4018 111.6554 15.64452002335608
STARLINK-1301,45361,53.0417,0.0001902,15.69280016,359.67570521331345,362.23925675388,1 45361U 20019B   26100.29494987  .00067770  00000+0  56960-3 0  9997,2 45361  53.0417 308.4831 0001902 304.0001  56.0834 15.69280016335564
STARLINK-1262,45366,53.1593,0.0001254,15.29580926,476.20449398447727,477.92377842943824,1 45366U 20019G   26100.49732227  .00035271  00000+0  12204-2 0  9999,2 45366  53.1593  17.5445 0001254 106.5069 253.6069 15.29580926334623
STARLINK-1273,45367,53.0509,0.0004048,15.49440785,415.60965639681035,421.1121010794377,1 45367U 20019H   26100.45657514  .00079705  00000+0  14196-2 0  9993,2 45367  53.0509   3.1498 0004048 137.6954 222.4367 15.49440785334817
STARLINK-1277,45369,53.0498,0.0005929,15.54947251,398.28584390156175,406.32609317365313,1 45369U 20019K   26100.44756576  .00085208  00000+0  12437-2 0  9993,2 45369  53.0498 359.8338 0005929 139.7873 220.3576 15.54947251334862
STARLINK-1281,45370,53.1602,0.0001009,15.30449549,473.77863428140427,475.16149038658295,1 45370U 20019L   26100.47947375  .00048248  00000+0  16181-2 0  9990,2 45370  53.1602  17.6246 0001009 100.9228 259.1886 15.30449549334627
STARLINK-1300,45374,53.1623,0.0001073,15.30475302,473.65791400203034,475.12846698091107,1 45374U 20019Q   26100.50156060  .00045432  00000+0  15237-2 0  9994,2 45374  53.1623  17.5296 0001073 103.7627 256.3493 15.30475302334622
STARLINK-1302,45375,53.0505,0.0002692,15.60005584,385.81958800884877,389.46228284928384,1 45375U 20019R   26100.42258436  .00060594  00000+0  73658-3 0  9994,2 45375  53.0505 357.9725 0002692 119.3035 240.8246 15.60005584334889
STARLINK-1304,45376,53.0479,0.0003272,15.54165965,402.358845936702,406.7974547310814,1 45376U 20019S   26100.41279630  .00094486  00000+0  14173-2 0  9996,2 45376  53.0479 357.0388 0003272 145.3927 214.7296 15.54165965334899
STARLINK-1305,45377,53.0428,0.0005581,15.59789728,384.4887931368239,392.0414511855797,1 45377U 20019T   26100.37188772  .00105933  00000+0  12858-2 0  9996,2 45377  53.0428 338.7916 0005581 201.6530 158.4247 15.59789728335152
STARLINK-1319,45379,53.0446,0.0002333,15.69419926,358.9848217224471,362.12909632372794,1 45379U 20019V   26100.49248367  .00058235  00000+0  48788-3 0  9992,2 45379  53.0446 333.1083 0002333 164.1381 195.9709 15.69419926335247
STARLINK-1266,45383,53.0498,0.0004716,15.50814322,411.1439013344898,417.5505724667346,1 45383U 20019Z   26099.97253773  .00073706  00000+0  12519-2 0  9996,2 45383  53.0498 343.3113 0004716 141.7491 218.3852 15.50814322335042
STARLINK-1267,45384,53.0494,7.17e-05,15.55976836,398.82863004631963,399.80051660193385,1 45384U 20019AA  26100.35361830  .00096465  00000+0  13537-2 0  9994,2 45384  53.0494 334.4579 0000717 259.5781 100.5148 15.55976836335205
STARLINK-1272,45386,53.0431,0.0004638,15.62666864,376.8227677806408,383.09157593445525,1 45386U 20019AC  26100.01276391  .00106135  00000+0  11533-2 0  9996,2 45386  53.0431 317.3731 0004638 230.8814 129.1788 15.62666864335418
STARLINK-1274,45387,53.027,0.0003816,15.5261291,406.5104844143898,411.69050406999577,1 45387U 20019AD  26100.00049724  .00070174  00000+0  11187-2 0  9992,2 45387  53.0270 312.6763 0003816 285.3421  74.7166 15.52612910335472
STARLINK-1280,45388,53.0425,0.0001819,15.69971516,357.75301430479976,360.20397692210463,1 45388U 20019AE  26100.33722532  .00068322  00000+0  55800-3 0  9997,2 45388  53.0425 326.5512 0001819 201.3868 158.7073 15.69971516335305
STARLINK-1283,45389,53.0433,4.85e-05,15.65028717,372.82873330240636,373.48360873999445,1 45389U 20019AF  26099.82700398  .00045682  00000+0  45901-3 0  9990,2 45389  53.0433 317.9690 0000485 121.7505 238.3557 15.65028717335390
STARLINK-1284,45390,53.0474,0.0004793,15.57833025,390.68400652391756,397.1757098141579,1 45390U 20019AG  26100.37145515  .00096579  00000+0  12644-2 0  9997,2 45390  53.0474 337.8909 0004793 156.0974 204.0261 15.57833025335151
STARLINK-1297,45395,53.0461,0.0005434,15.60997955,381.09820057619345,388.44813134455853,1 45395U 20019AM  26100.51994691  .00096650  00000+0  11220-2 0  9994,2 45395  53.0461 336.2593 0005434 158.4980 201.6262 15.60997955334374
STARLINK-1307,45397,53.0556,0.0001944,15.52990811,406.680164778757,409.31861460707023,1 45397U 20019AP  26100.37966676  .00025927  00000+0  41478-3 0  9990,2 45397  53.0556 338.3961 0001944 102.3707 257.7520 15.52990811334970
STARLINK-1255,45399,53.0396,0.0001982,15.58277108,391.3012109741012,393.98514823729784,1 45399U 20019AR  26100.31302625  .00104273  00000+0  13412-2 0  9992,2 45399  53.0396 309.8475 0001982 229.5206 130.5633 15.58277108335354
STARLINK-1260,45404,53.1597,0.0001878,15.32727394,466.3934537702962,468.9647422967164,1 45404U 20019AW  26099.96749229  .00050513  00000+0  15771-2 0  9999,2 45404  53.1597 343.7863 0001878 187.2260 172.8715 15.32727394334760
STARLINK-1263,45405,53.1599,0.000112,15.30408204,473.82597446955606,475.3609860971392,1 45405U 20019AX  26100.36362353  .00047510  00000+0  15957-2 0  9995,2 45405  53.1599 342.1495 0001120 105.8262 254.2863 15.30408204334825
STARLINK-1265,45406,53.1581,0.0001908,15.32811205,466.123418124841,468.73568632116985,1 45406U 20019AY  26100.36160205  .00051959  00000+0  16173-2 0  9991,2 45406  53.1581 342.0490 0001908 184.2528 175.8458 15.32811205334820
STARLINK-1278,45408,53.045,0.0003585,15.62147057,379.03295250140945,383.87958087362404,1 45408U 20019BA  26100.07006878  .00101339  00000+0  11248-2 0  9992,2 45408  53.0450 337.8070 0003585 183.3353 176.7637 15.62147057334853
